P/2019 A2 (ATLAS),e,14.8618,139.4391,323.8537,5.713466,0.0721697,0.38229723,118.9501,05/27.0/2023,2000,g 10.5,4.0
# From MPEC 2022-M21
P/2019 A3 (PANSTARRS),e,15.3751,31.2937,325.6776,3.144000,0.1767992,0.26607877,310.3958,05/27.0/2023,2000,g 16.0,4.0
# From MPEC 2022-L66
P/2019 A4 (PANSTARRS),e,13.3061,119.2431,343.0440,2.613549,0.2332696,0.08713216,19.7332,05/27.0/2023,2000,g 15.0,4.0
# From MPEC 2021-P47
C/2019 A5 (PANSTARRS),e,67.5511,146.6000,355.7957,21.48507,0.0098969,0.70612487,14.3547,05/27.0/2023,2000,g  9.5,4.0
# From MPC114605
P/2019 A6 (Lemmon-PANSTARRS),e,33.2719,280.1897,156.1977,5.357592,0.0794785,0.63998374,137.5489,05/27.0/2023,2000,g 16.0,4.0
# From MPC115884
P/2019 A8 (PANSTARRS),e,2.1830,113.9238,65.8519,4.302267,0.1104481,0.23479165,198.2517,05/27.0/2023,2000,g 16.0,4.0
# From MPC118842
C/2019 A9 (PANSTARRS),e,84.2696,278.4142,237.9178,39.14028,0.0040250,0.96344877,5.6391,05/27.0/2023,2000,g 15.0,4.0
# From MPEC 2022-L66
C/2019 B1 (Africano),e,123.4186,290.3603,174.7690,137.5949,0.0006107,0.98838399,0.0000,03/18.5563/2019,2000,g 16.0,4.0
# From MPC115885
P/2019 B2 (Groeller),e,17.0043,175.7466,0.9795,3.915886,0.1271918,0.35990197,185.7805,05/27.0/2023,2000,g 14.5,4.0
# From MPEC 2023-HD1
C/2019 B3 (PANSTARRS),e,66.5395,358.4323,263.9682,35951,0.0000001,0.99981014,0.0000,01/20.3321/2021,2000,g  9.4,4.0
# From MPEC 2021-P47
C/2019 C1 (ATLAS),e,36.0510,212.3919,319.0694,645.9363,0.0000600,0.98982001,0.0000,05/04.2657/2020,2000,g 10.0,4.0
# From MPEC 2022-O08
C/2019 D1 (Flewelling),e,34.0073,231.6592,70.6901,142.1250,0.0005817,0.98883837,0.0000,05/11.0737/2019,2000,g 13.0,4.0
# From MPEC 2023-KD6
C/2019 E3 (ATLAS),e,84.2973,347.2437,280.6872,22483,0.0000003,0.99954129,0.0000,11/14.9944/2023,2000,g  2.5,4.0
# From MPEC 2023-CD7
C/2019 F1 (ATLAS-Africano),h,06/22.9491/2021,54.2305,38.6660,251.3060,1.002895,3.602671,2000,5.5,4.0
# From MPEC 2021-P47
C/2019 F2 (ATLAS),e,19.2767,175.4455,11.6326,16.62131,0.0145448,0.86485759,19.7398,05/27.0/2023,2000,g 12.0,4.0
# From MPEC 2021-P47
A/2019 G2,e,159.2143,208.1608,82.6062,435.1089,0.0001086,0.99472760,0.0000,12/08.4616/2019,2000,g 16.5,2.0
# From MPEC 2022-VC5
A/2019 G3,e,156.8066,49.8976,161.9070,17.20226,0.0138142,0.83447810,22.5795,05/27.0/2023,2000,g 17.1,2.0
# From MPEC 2022-P82
C/2019 G4 (PANSTARRS),h,09/15.6723/2018,138.3494,130.4499,287.7568,1.001618,5.848033,2000,9.5,4.0
# From MPC114607
P/2019 GG21 (PANSTARRS),e,6.0864,340.5559,208.5992,7.468973,0.0482851,0.47185228,71.3632,05/27.0/2023,2000,g 12.0,4.0
# From MPEC 2022-M21
C/2019 H1 (NEOWISE),e,104.4500,269.2727,19.3353,246.4789,0.0002547,0.99251577,0.0000,04/27.9547/2019,2000,g 15.5,4.0
# From MPEC 2023-A50
C/2019 J1 (Lemmon),e,24.5397,98.1628,167.7365,68.31710,0.0017455,0.96362465,2.6362,05/27.0/2023,2000,g 12.0,4.0
# From MPEC 2021-R75
C/2019 J2 (Palomar),e,105.2337,25.5613,98.6859,161.9850,0.0004781,0.98937349,0.0000,07/20.4190/2019,2000,g 13.0,4.0
# From MPC117071
C/2019 J3 (ATLAS),h,08/02.4273/2019,131.3496,270.6069,16.6056,1.000620,2.370678,2000,13.5,4.0
# From MPEC 2022-M21
C/2019 JU6 (ATLAS),h,06/01.9432/2019,148.3315,21.7658,94.9920,1.000054,2.043910,2000,14.5,4.0
# From MPEC 2022-O08
C/2019 K1 (ATLAS),e,87.0522,73.3367,265.7251,10492,0.0000009,0.99980804,0.0000,02/12.6656/2020,2000,g 10.0,4.0
# From MPC119997
C/2019 K4 (Ye),e,105.2970,180.1526,139.8867,1386,0.0000191,0.99836285,0.0000,06/15.5889/2019,2000,g 12.5,4.0
# From MPEC 2021-P47
C/2019 K5 (Young),e,15.3177,177.1346,175.1436,168.3370,0.0004513,0.98786520,0.0000,06/22.9647/2019,2000,g 13.0,4.0
# From MPEC 2021-P47
C/2019 K6 (PANSTARRS),e,132.3811,42.9959,187.5826,1520,0.0000166,0.99741809,0.0000,05/19.9685/2020,2000,g 11.5,4.0
# From MPEC 2023-KD6
C/2019 K7 (Smith),h,06/17.6142/2020,103.5305,307.9677,27.4037,1.000931,4.478322,2000,6.0,4.0
# From MPEC 2021-R75
C/2019 K8 (ATLAS),e,93.1374,291.0276,85.3794,2614,0.0000074,0.99877858,0.0000,07/21.7361/2019,2000,g 11.5,4.0
# From MPEC 2023-A50
C/2019 L1 (PANSTARRS),e,9.9794,254.4301,50.0528,9.840016,0.0319308,0.70532440,44.2386,05/27.0/2023,2000,g 13.5,4.0
# From MPC115886
C/2019 L2 (NEOWISE),e,152.2100,12.5488,18.8442,25.03690,0.0078674,0.93505301,11.9271,05/27.0/2023,2000,g 16.0,4.0
# From MPEC 2023-HD1
P/2019 LD2 (ATLAS),e,11.6192,179.5791,119.8434,5.218123,0.0826861,0.12659212,97.4329,05/27.0/2023,2000,g 12.0,4.0
# From MPEC 2023-KD6
C/2019 L3 (ATLAS),h,01/09.6776/2022,48.3490,290.7750,171.6243,1.002144,3.554499,2000,4.5,4.0
# From MPC118095
C/2019 LB7 (Kleyna),e,164.2914,3.8901,336.5798,34.69241,0.0048234,0.92817756,7.3446,05/27.0/2023,2000,g 17.0,4.0
# From MPEC 2022-O08
P/2019 M2 (ATLAS),e,12.2704,307.6160,332.5490,3.028921,0.1869701,0.64739924,268.3575,05/27.0/2023,2000,g 21.2,4.0
# From MPC118095
C/2019 M3 (ATLAS),e,99.5186,154.9336,87.8960,6594,0.0000018,0.99963265,0.0000,12/31.8986/2018,2000,g 12.2,4.0
# From MPEC 2023-JA2
C/2019 M4 (TESS),h,09/12.4113/2019,65.6834,52.6446,260.3725,1.003845,9.187874,2000,5.0,4.0
# From MPEC 2023-C45
C/2019 N1 (ATLAS),e,82.4323,13.5715,193.4155,1603,0.0000154,0.99893613,0.0000,12/01.2845/2020,2000,g  7.5,4.0
# From MPEC 2023-CD8
A/2019 N2,e,89.3843,276.1264,347.1929,1622,0.0000151,0.99879947,0.0000,08/22.7512/2019,2000,g 12.5,2.0
# From MPEC 2022-A21
C/2019 NJ3 (Lemmon),h,10/22.9419/2020,99.4162,142.4710,246.9116,1.002496,4.362784,2000,9.0,4.0
# From MPEC 2023-KD6
A/2019 O2,e,93.3082,48.2618,129.6361,57.94481,0.0022345,0.83289641,0.1114,05/27.0/2023,2000,g  9.5,2.0
# From MPEC 2023-KD6
C/2019 O3 (Palomar),h,03/09.5925/2021,89.8183,300.4226,60.1292,1.004372,8.821044,2000,3.5,4.0
# From MPEC 2021-P47
A/2019 O4,e,115.0877,354.9100,61.9042,33.29621,0.0051299,0.89049666,6.1616,05/27.0/2023,2000,g 15.5,2.0
# From MPEC 2023-A50
C/2019 Q1 (Lemmon),h,07/20.7670/2020,155.7296,42.4598,56.1983,1.000823,5.003078,2000,8.5,4.0
# From MPC117072
A/2019 Q2,e,159.0284,188.0125,176.3972,57.91403,0.0022363,0.97819273,0.0000,07/22.1321/2019,2000,g 18.0,2.0
# From MPC117072
C/2019 Q3 (PANSTARRS),h,08/21.3172/2018,65.5405,151.3421,152.7962,1.002502,7.266639,2000,8.5,4.0
# From MPC117072
P/2019 S2 (PANSTARRS),e,10.4656,93.1387,217.1572,4.742978,0.0954174,0.20564686,148.3975,05/27.0/2023,2000,g 13.5,4.0
# From MPEC 2022-CN4
P/2019 S3 (PANSTARRS),e,8.6926,150.1499,213.0593,3.415394,0.1561503,0.47116886,213.7325,05/27.0/2023,2000,g 18.3,4.0
# From MPEC 2021-S45
C/2019 S4 (Lemmon),e,92.0833,63.1486,71.3775,234.8758,0.0002738,0.98534374,0.0000,04/08.0921/2020,2000,g 11.0,4.0
# From MPEC 2023-KD6
A/2019 T1,e,120.8750,6.9449,91.0711,38.76004,0.0040844,0.88954179,3.5214,05/27.0/2023,2000,g 13.0,2.0
# From MPEC 2023-KD6
C/2019 T2 (Lemmon),e,111.4718,155.6506,239.4311,4190,0.0000036,0.99936842,0.0000,04/22.5406/2021,2000,g  9.0,4.0
# From MPEC 2022-WQ9
C/2019 T3 (ATLAS),e,121.8432,139.5321,112.4523,3515,0.0000047,0.99830688,0.0000,03/04.2996/2021,2000,g  6.8,4.0
# From MPEC 2023-KD6
C/2019 T4 (ATLAS),e,53.6318,199.9390,351.1683,953.0209,0.0000335,0.99554900,0.0000,06/08.9335/2022,2000,g  5.0,4.0
# From MPEC 2021-P47
P/2019 T5 (ATLAS),e,33.4911,247.6237,189.5679,7.997692,0.0435770,0.80955558,60.7516,05/27.0/2023,2000,g 15.0,4.0
# From MPEC 2021-P47
P/2019 T6 (PANSTARRS),e,18.7026,71.2200,329.0042,5.437980,0.0777227,0.62306017,100.6816,05/27.0/2023,2000,g 15.5,4.0
# From MPC118096
P/2019 U4 (PANSTARRS),e,11.7006,200.0007,181.0319,3.520181,0.1492301,0.47601017,200.7732,05/27.0/2023,2000,g 19.0,4.0
# From MPEC 2023-KD6
C/2019 U5 (PANSTARRS),h,03/29.8289/2023,113.5194,2.6373,181.4926,1.001423,3.624192,2000,4.5,4.0
# From MPEC 2022-H04
C/2019 U6 (Lemmon),e,60.9771,235.7635,329.5688,338.0917,0.0001585,0.99729893,0.0000,06/18.4131/2020,2000,g 10.0,4.0
# From MPEC 2022-N37
C/2019 V1 (Borisov),e,61.9091,83.1666,51.1624,1535,0.0000164,0.99798407,0.0000,07/16.4429/2020,2000,g 11.0,4.0
# From MPEC 2022-L66
P/2019 V2 (Groeller),e,11.8082,189.1844,335.7489,7.499441,0.0479911,0.33113334,45.6693,05/27.0/2023,2000,g 10.0,4.0
# From MPEC 2023-A50
P/2019 W1 (PANSTARRS),e,23.4751,35.3767,18.7301,4.549180,0.1015791,0.26711265,150.2181,05/27.0/2023,2000,g 12.9,4.0
# From MPEC 2021-P47
P/2019 X1 (Pruyne),e,10.2502,43.6645,36.8100,6.174323,0.0642422,0.30367061,90.2510,05/27.0/2023,2000,g 10.4,4.0
# From MPC119999
C/2019 Y1 (ATLAS),e,73.3572,31.5563,57.9119,86.55934,0.0012239,0.99042361,0.0000,03/16.0527/2020,2000,g 13.7,4.0
# From MPEC 2022-YN2
C/2019 Y4 (ATLAS),e,45.2191,120.6595,177.4527,353.7727,0.0001481,0.99927875,0.0000,05/30.8680/2020,2000,g 11.8,6.0
# From MPEC 2020-L06
C/2019 Y4-A (ATLAS),h,05/30.8954/2020,45.6618,121.0210,177.2864,1.001419,0.253313,2000,11.6,6.0
# From MPEC 2023-J29
C/2019 Y4-B (ATLAS),h,05/30.8732/2020,45.3499,120.7656,177.3968,1.000021,0.254626,2000,12.1,6.0
# From MPEC 2020-L06
C/2019 Y4-C (ATLAS),h,05/30.8498/2020,45.4441,120.7475,177.3198,1.002143,0.254380,2000,12.7,6.0
# From MPEC 2020-L06
C/2019 Y4-D (ATLAS),e,45.4889,121.1218,177.4578,68.42497,0.0017413,0.99629209,0.0000,05/30.9739/2020,2000,g 12.5,6.0
# From MPEC 2023-A50
C/2019 Y5 (PANSTARRS),e,82.7688,51.7569,303.5624,753.8260,0.0000476,0.99347316,0.0000,08/17.9246/2019,2000,g 11.0,4.0
# From MPEC 2023-A50
A/2020 A1,e,149.0373,119.2031,302.5104,25.65242,0.0075860,0.93502933,9.6472,05/27.0/2023,2000,g 18.0,2.0
# From MPEC 2022-YN2
C/2020 A2 (NEOWISE),e,120.6317,286.3007,68.0927,1412,0.0000186,0.99931013,0.0000,01/08.5127/2020,2000,g 13.5,4.0
# From MPEC 2023-A50
C/2020 A3 (ATLAS),h,06/29.1167/2019,146.6689,120.8044,268.3722,1.000858,5.760323,2000,8.0,4.0
# From MPEC 2022-P91
P/2020 A4 (PANSTARRS-Lemmon),e,24.9908,312.3759,144.7717,8.194141,0.0420193,0.65399688,53.8282,05/27.0/2023,2000,g 15.0,4.0
# From MPEC 2020-N08
A/2020 B1,e,18.5197,309.9491,154.7282,51.41932,0.0026731,0.96614323,3.3351,05/27.0/2023,2000,g 21.0,2.0
# From MPEC 2022-N37
C/2020 B3 (Rankin),e,20.7096,185.8461,324.9120,947.5151,0.0000338,0.99647874,0.0000,10/19.4525/2019,2000,g 13.0,4.0
# From MPEC 2023-KD6
P/2020 B4 (Sheppard),e,11.6091,185.9789,342.0761,7.966710,0.0438314,0.19181915,24.2669,05/27.0/2023,2000,g 10.5,4.0
